 Automated mail xmit by MAIL_REQUEST, PID= 432 Mon Jul 31 11:18:12 2017
++++++++++++++++++++++++++++++++ (part 1 of 1)  +++++++++++++++++++++++++++++++

*******************************************************************************
 Revised : Jul 31, 2013                  Sun                                 10

 PHYSICAL PROPERTIES (revised Jan 16, 2014):
  GM (10^11 km^3/s^2)   = 1.3271244004193938  Mass (10^30 kg)   ~ 1.988544
  Radius (photosphere)  = 6.963(10^5) km  Angular diam at 1 AU  = 1919.3"
  Solar Radius (IAU)    = 6.955(10^5) km  Mean density          = 1.408 g/cm^3
  Surface gravity       =  274.0 m/s^2    Moment of inertia     = 0.059
  Escape velocity       =  617.7 km/s     Adopted sidereal per  = 25.38 d
  Pole (RA,DEC in deg.) =  286.13,63.87   Obliquity to ecliptic = 7 deg 15'        
  Solar constant (1 AU) = 1367.6 W/m^2    Solar lumin.(erg/s)   =  3.846(10^33)
  Mass-energy conv rate = 4.3(10^12 gm/s) Effective temp (K)    =  5778
  Surf. temp (photosphr)= 6600 K (bottom) Surf. temp (photosphr)=  4400 K (top)
  Photospheric depth    = ~400 km         Chromospheric depth   = ~2500 km
  Sunspot cycle         = 11.4 yr         Cycle 22 sunspot min. =  1991 A.D.

  Motn. rel to nrby strs= apex : RA=271 deg; DEC=+30 deg
                          speed: 19.4 km/s = 0.0112 AU/day
  Motn. rel to 2.73K BB = apex : l=264.7+-0.8; b=48.2+-0.5
                          speed: 369 +-11 km/s
*******************************************************************************
 
 
*******************************************************************************
Ephemeris / MAIL_REQUEST Mon Jul 31 11:18:12 2017 Pasadena, USA  / Horizons    
*******************************************************************************
Target body name: Sun (10)                        {source: DE431mx}
Center body name: Solar System Barycenter (0)     {source: DE431mx}
Center-site name: BODY CENTER
*******************************************************************************
Start time      : A.D. 2017-Jul-10 00:00:00.0000 TDB
Stop  time      : A.D. 2020-Aug-13 00:00:00.0000 TDB
Step-size       : 1440 minutes
*******************************************************************************
Center geodetic : 0.00000000,0.00000000,0.0000000 {E-lon(deg),Lat(deg),Alt(km)}
Center cylindric: 0.00000000,0.00000000,0.0000000 {E-lon(deg),Dxy(km),Dz(km)}
Center radii    : (undefined)                                                  
Output units    : KM-S                                                         
Output type     : GEOMETRIC cartesian states
Output format   : 3 (position, velocity, LT, range, range-rate)
Reference frame : ICRF/J2000.0                                                 
Coordinate systm: Ecliptic and Mean Equinox of Reference Epoch                 
*******************************************************************************
            JDTDB,            Calendar Date (TDB),                      X,                      Y,                      Z,                     VX,                     VY,                     VZ,                     LT,                     RG,                     RR,
**************************************************************************************************************************************************************************************************************************************************************************
$$SOE
2459048.500000000, A.D. 2020-Jul-18 00:00:00.0000, -8.115575219749061E+05,  1.023358542970559E+06,  1.030475383803935E+04, -1.367124428632311E-02, -7.255536346983386E-03,  3.953653246527174E-04,  4.356804888591638E+00,  1.306137246577303E+06,  2.812920451336596E-03,
2459049.500000000, A.D. 2020-Jul-19 00:00:00.0000, -8.127382447674519E+05,  1.022730744401778E+06,  1.033890085028269E+04, -1.366028188360970E-02, -7.276820612364656E-03,  3.950743617438285E-04,  4.357614395162881E+00,  1.306379930542063E+06,  2.804765986022043E-03,
2459050.500000000, A.D. 2020-Jul-20 00:00:00.0000, -8.139180152667490E+05,  1.022101111442586E+06,  1.037302262356033E+04, -1.364920082913695E-02, -7.297998136457700E-03,  3.947811724931555E-04,  4.358421553659610E+00,  1.306621910571793E+06,  2.796626542626709E-03,
2459051.500000000, A.D. 2020-Jul-21 00:00:00.0000, -8.150968233242539E+05,  1.021469653566557E+06,  1.040711898815277E+04, -1.363800359784368E-02, -7.319063054989441E-03,  3.944862936855996E-04,  4.359226369202206E+00,  1.306863188201545E+06,  2.788507706524248E-03,
2459052.500000000, A.D. 2020-Jul-22 00:00:00.0000, -8.162746590305970E+05,  1.020836380766734E+06,  1.044118982414855E+04, -1.362669327067259E-02, -7.340009213678252E-03,  3.941903427888320E-04,  4.360028848605697E+00,  1.307103765474412E+06,  2.780415660132270E-03,
2459053.500000000, A.D. 2020-Jul-23 00:00:00.0000, -8.174515127731445E+05,  1.020201303578704E+06,  1.047523506873404E+04, -1.361527365677489E-02, -7.360830218697930E-03,  3.938940251288093E-04,  4.360829000557758E+00,  1.307343644994893E+06,  2.772357221756632E-03,
2459054.500000000, A.D. 2020-Jul-24 00:00:00.0000, -8.186273753045090E+05,  1.019564433098014E+06,  1.050925472403399E+04, -1.360374942389964E-02, -7.381519518439118E-03,  3.935981392581590E-04,  4.361626835805470E+00,  1.307582829984884E+06,  2.764339866036664E-03,
2459055.500000000, A.D. 2020-Jul-25 00:00:00.0000, -8.198022378224684E+05,  1.018925780988907E+06,  1.054324886529509E+04, -1.359212623089693E-02, -7.402070524057898E-03,  3.933035793480151E-04,  4.362422367344212E+00,  1.307821324340300E+06,  2.756371716548644E-03,
2459056.500000000, A.D. 2020-Jul-26 00:00:00.0000, -8.209760920611179E+05,  1.018285359480667E+06,  1.057721764909668E+04, -1.358041085347267E-02, -7.422476776975189E-03,  3.930113331224987E-04,  4.363215610599017E+00,  1.308059132685450E+06,  2.748461498844815E-03,
2459057.500000000, A.D. 2020-Jul-27 00:00:00.0000, -8.221489303919702E+05,  1.017643181347581E+06,  1.061116132114234E+04, -1.356861128773468E-02, -7.442732164816003E-03,  3.927224737983498E-04,  4.364006583585711E+00,  1.308296260421343E+06,  2.740618443228847E-03,
2459058.500000000, A.D. 2020-Jul-28 00:00:00.0000, -8.233207459329868E+05,  1.016999259866669E+06,  1.064508022296871E+04, -1.355673681463727E-02, -7.462831195466538E-03,  3.924381436842825E-04,  4.364795307032820E+00,  1.308532713762234E+06,  2.732852119214833E-03,
2459059.500000000, A.D. 2020-Jul-29 00:00:00.0000, -8.244915326594551E+05,  1.016353608752986E+06,  1.067897479699901E+04, -1.354479800445359E-02, -7.482769297488253E-03,  3.921595301249635E-04,  4.365581804451443E+00,  1.308768499756573E+06,  2.725172213182410E-03,
2459060.500000000, A.D. 2020-Jul-30 00:00:00.0000, -8.256612855138378E+05,  1.015706242062587E+06,  1.071284558886674E+04, -1.353280664847633E-02, -7.502543199713313E-03,  3.918878282990713E-04,  4.366366102121677E+00,  1.309003626282936E+06,  2.717588199959631E-03,
2459061.500000000, A.D. 2020-Jul-31 00:00:00.0000, -8.268300005034901E+05,  1.015057174066017E+06,  1.074669324622460E+04, -1.352077556688332E-02, -7.522151267579006E-03,  3.916241961903644E-04,  4.367148228980098E+00,  1.309238102016290E+06,  2.710108970895170E-03,
2459062.500000000, A.D. 2020-Aug-01 00:00:00.0000, -8.279976747778717E+05,  1.014406419091713E+06,  1.078051851322094E+04, -1.350871831871876E-02, -7.541593850370707E-03,  3.913696996882001E-04,  4.367928216389187E+00,  1.309471936358870E+06,  2.702742391916990E-03,
2459063.500000000, A.D. 2020-Aug-02 00:00:00.0000, -8.291643066754432E+05,  1.013753991341552E+06,  1.081432221992593E+04, -1.349664878920003E-02, -7.560873567977019E-03,  3.911252513774141E-04,  4.368706097773831E+00,  1.309705139331205E+06,  2.695494830594417E-03,
2459064.500000000, A.D. 2020-Aug-03 00:00:00.0000, -8.303298957298908E+05,  1.013099904686325E+06,  1.084810526639328E+04, -1.348458066534240E-02, -7.579995480633039E-03,  3.908915486446419E-04,  4.369481908122955E+00,  1.309937721422710E+06,  2.688370701857199E-03,
2459065.500000000, A.D. 2020-Aug-04 00:00:00.0000, -8.314944426275080E+05,  1.012444172453121E+06,  1.088186860158743E+04, -1.347252683773679E-02, -7.598967101362741E-03,  3.906690178638503E-04,  4.370255683369369E+00,  1.310169693405773E+06,  2.681372086296218E-03,
2459066.500000000, A.D. 2020-Aug-05 00:00:00.0000, -8.326579491116615E+05,  1.011786807219303E+06,  1.091561319800164E+04, -1.346049878421725E-02, -7.617798228429216E-03,  3.904577716279849E-04,  4.371027459676385E+00,  1.310401066121879E+06,  2.674498472807537E-03,
2459067.500000000, A.D. 2020-Aug-06 00:00:00.0000, -8.338204178355427E+05,  1.011127820628952E+06,  1.094934002337552E+04, -1.344850600011703E-02, -7.636500594062172E-03,  3.902575852664154E-04,  4.371797272673485E+00,  1.310631850252480E+06,  2.667746668677277E-03,
2459068.500000000, A.D. 2020-Aug-07 00:00:00.0000, -8.349818521700546E+05,  1.010467223247068E+06,  1.098305001138849E+04, -1.343655553983356E-02, -7.655087346055422E-03,  3.900678972289609E-04,  4.372565156693804E+00,  1.310862056090391E+06,  2.661110904972452E-03,
2459069.500000000, A.D. 2020-Aug-08 00:00:00.0000, -8.361422559789605E+05,  1.009805024464492E+06,  1.101674403350119E+04, -1.342465172550362E-02, -7.673572400513240E-03,  3.898878353270512E-04,  4.373331144071154E+00,  1.311091693329043E+06,  2.654583143235747E-03,
2459070.500000000, A.D. 2020-Aug-09 00:00:00.0000, -8.373016333775326E+05,  1.009141232462191E+06,  1.105042287414108E+04, -1.341279606073132E-02, -7.691969727073414E-03,  3.897162673007926E-04,  4.374095264552129E+00,  1.311320770886243E+06,  2.648153560914807E-03,
2459071.500000000, A.D. 2020-Aug-10 00:00:00.0000, -8.384599884931213E+05,  1.008475854237219E+06,  1.108408721110941E+04, -1.340098736051195E-02, -7.710292652346460E-03,  3.895518697273693E-04,  4.374857544867392E+00,  1.311549296775641E+06,  2.641811157623065E-03,
